[{"OBJECT_NAME":"KUIPER-00225","OBJECT_ID":"2026-030W","EPOCH":"2026-03-05T00:13:36.441984","MEAN_MOTION":15.35688077,"ECCENTRICITY":0.0004128,"INCLINATION":51.881,"RA_OF_ASC_NODE":241.6996,"ARG_OF_PERICENTER":26.5884,"MEAN_ANOMALY":333.5314,"EPHEMERIS_TYPE":0,"CLASSIFICATION_TYPE":"U","NORAD_CAT_ID":67784,"ELEMENT_SET_NO":999,"REV_AT_EPOCH":437,"BSTAR":0.00080935,"MEAN_MOTION_DOT":0.00028249,"MEAN_MOTION_DDOT":0},{"OBJECT_NAME":"KUIPER-00226","OBJECT_ID":"2026-030X","EPOCH":"2026-03-04T23:48:01.722240","MEAN_MOTION":15.31268779,"ECCENTRICITY":0.0019968,"INCLINATION":51.8805,"RA_OF_ASC_NODE":242.3152,"ARG_OF_PERICENTER":59.9274,"MEAN_ANOMALY":300.3687,"EPHEMERIS_TYPE":0,"CLASSIFICATION_TYPE":"U","NORAD_CAT_ID":67785,"ELEMENT_SET_NO":999,"REV_AT_EPOCH":436,"BSTAR":0.0012009,"MEAN_MOTION_DOT":0.00036832,"MEAN_MOTION_DDOT":0},{"OBJECT_NAME":"KUIPER-00259","OBJECT_ID":"2026-030Y","EPOCH":"2026-03-04T22:55:21.975744","MEAN_MOTION":15.34866797,"ECCENTRICITY":0.0008258,"INCLINATION":51.8811,"RA_OF_ASC_NODE":242.082,"ARG_OF_PERICENTER":35.7954,"MEAN_ANOMALY":324.3583,"EPHEMERIS_TYPE":0,"CLASSIFICATION_TYPE":"U","NORAD_CAT_ID":67786,"ELEMENT_SET_NO":999,"REV_AT_EPOCH":436,"BSTAR":0.0010341,"MEAN_MOTION_DOT":0.00035313,"MEAN_MOTION_DDOT":0},{"OBJECT_NAME":"KUIPER-00260","OBJECT_ID":"2026-030Z","EPOCH":"2026-03-05T00:02:46.840992","MEAN_MOTION":15.36252409,"ECCENTRICITY":0.000101,"INCLINATION":51.8797,"RA_OF_ASC_NODE":241.6502,"ARG_OF_PERICENTER":51.9851,"MEAN_ANOMALY":308.1227,"EPHEMERIS_TYPE":0,"CLASSIFICATION_TYPE":"U","NORAD_CAT_ID":67787,"ELEMENT_SET_NO":999,"REV_AT_EPOCH":428,"BSTAR":0.00088945,"MEAN_MOTION_DOT":0.00031664,"MEAN_MOTION_DDOT":0},{"OBJECT_NAME":"KUIPER-00262","OBJECT_ID":"2026-030AA","EPOCH":"2026-03-04T23:57:49.921344","MEAN_MOTION":15.36571962,"ECCENTRICITY":3.55e-5,"INCLINATION":51.8807,"RA_OF_ASC_NODE":241.6308,"ARG_OF_PERICENTER":117.8319,"MEAN_ANOMALY":242.2704,"EPHEMERIS_TYPE":0,"CLASSIFICATION_TYPE":"U","NORAD_CAT_ID":67788,"ELEMENT_SET_NO":999,"REV_AT_EPOCH":437,"BSTAR":0.0010341,"MEAN_MOTION_DOT":0.00037288,"MEAN_MOTION_DDOT":0},{"OBJECT_NAME":"KUIPER-00266","OBJECT_ID":"2026-030AB","EPOCH":"2026-03-04T23:54:31.772448","MEAN_MOTION":15.30959366,"ECCENTRICITY":0.0022736,"INCLINATION":51.8805,"RA_OF_ASC_NODE":242.3416,"ARG_OF_PERICENTER":59.5056,"MEAN_ANOMALY":300.817,"EPHEMERIS_TYPE":0,"CLASSIFICATION_TYPE":"U","NORAD_CAT_ID":67789,"ELEMENT_SET_NO":999,"REV_AT_EPOCH":436,"BSTAR":0.00080059,"MEAN_MOTION_DOT":0.00024194,"MEAN_MOTION_DDOT":0},{"OBJECT_NAME":"KUIPER-00268","OBJECT_ID":"2026-030AC","EPOCH":"2026-03-05T00:10:01.223904","MEAN_MOTION":15.35796041,"ECCENTRICITY":0.0002453,"INCLINATION":51.8846,"RA_OF_ASC_NODE":241.6907,"ARG_OF_PERICENTER":35.7027,"MEAN_ANOMALY":324.4123,"EPHEMERIS_TYPE":0,"CLASSIFICATION_TYPE":"U","NORAD_CAT_ID":67790,"ELEMENT_SET_NO":999,"REV_AT_EPOCH":437,"BSTAR":0.0010541,"MEAN_MOTION_DOT":0.00037075,"MEAN_MOTION_DDOT":0},{"OBJECT_NAME":"KUIPER-00270","OBJECT_ID":"2026-030AD","EPOCH":"2026-03-04T23:02:58.471008","MEAN_MOTION":15.34436452,"ECCENTRICITY":0.0010049,"INCLINATION":51.8808,"RA_OF_ASC_NODE":242.1152,"ARG_OF_PERICENTER":43.4412,"MEAN_ANOMALY":316.7364,"EPHEMERIS_TYPE":0,"CLASSIFICATION_TYPE":"U","NORAD_CAT_ID":67791,"ELEMENT_SET_NO":999,"REV_AT_EPOCH":436,"BSTAR":0.00079052,"MEAN_MOTION_DOT":0.00026518,"MEAN_MOTION_DDOT":0},{"OBJECT_NAME":"KUIPER-00274","OBJECT_ID":"2026-030AE","EPOCH":"2026-03-05T04:21:09.733824","MEAN_MOTION":15.31367467,"ECCENTRICITY":0.001867,"INCLINATION":51.8814,"RA_OF_ASC_NODE":241.3433,"ARG_OF_PERICENTER":57.2432,"MEAN_ANOMALY":303.0348,"EPHEMERIS_TYPE":0,"CLASSIFICATION_TYPE":"U","NORAD_CAT_ID":67792,"ELEMENT_SET_NO":999,"REV_AT_EPOCH":439,"BSTAR":-0.0011184,"MEAN_MOTION_DOT":-0.0003479,"MEAN_MOTION_DDOT":0},{"OBJECT_NAME":"KUIPER-00275","OBJECT_ID":"2026-030AF","EPOCH":"2026-03-04T22:59:14.364960","MEAN_MOTION":15.34518049,"ECCENTRICITY":0.0008964,"INCLINATION":51.8843,"RA_OF_ASC_NODE":242.108,"ARG_OF_PERICENTER":39.4841,"MEAN_ANOMALY":320.6796,"EPHEMERIS_TYPE":0,"CLASSIFICATION_TYPE":"U","NORAD_CAT_ID":67793,"ELEMENT_SET_NO":999,"REV_AT_EPOCH":436,"BSTAR":0.0010466,"MEAN_MOTION_DOT":0.00035353,"MEAN_MOTION_DDOT":0},{"OBJECT_NAME":"KUIPER-00276","OBJECT_ID":"2026-030AG","EPOCH":"2026-03-05T04:26:54.370464","MEAN_MOTION":15.31368165,"ECCENTRICITY":0.0018844,"INCLINATION":51.8807,"RA_OF_ASC_NODE":241.3676,"ARG_OF_PERICENTER":54.6829,"MEAN_ANOMALY":305.5914,"EPHEMERIS_TYPE":0,"CLASSIFICATION_TYPE":"U","NORAD_CAT_ID":67794,"ELEMENT_SET_NO":999,"REV_AT_EPOCH":439,"BSTAR":0.0010384,"MEAN_MOTION_DOT":0.00031853,"MEAN_MOTION_DDOT":0},{"OBJECT_NAME":"KUIPER-00279","OBJECT_ID":"2026-030AH","EPOCH":"2026-03-04T22:49:46.227936","MEAN_MOTION":15.35198982,"ECCENTRICITY":0.0006441,"INCLINATION":51.8801,"RA_OF_ASC_NODE":242.0547,"ARG_OF_PERICENTER":34.4125,"MEAN_ANOMALY":325.7277,"EPHEMERIS_TYPE":0,"CLASSIFICATION_TYPE":"U","NORAD_CAT_ID":67795,"ELEMENT_SET_NO":999,"REV_AT_EPOCH":436,"BSTAR":0.00090688,"MEAN_MOTION_DOT":0.00031226,"MEAN_MOTION_DDOT":0},{"OBJECT_NAME":"CREW DRAGON 12","OBJECT_ID":"2026-031A","EPOCH":"2026-03-04T20:48:04.408416","MEAN_MOTION":15.48447334,"ECCENTRICITY":0.0008177,"INCLINATION":51.6315,"RA_OF_ASC_NODE":96.2009,"ARG_OF_PERICENTER":157.5272,"MEAN_ANOMALY":202.6076,"EPHEMERIS_TYPE":0,"CLASSIFICATION_TYPE":"U","NORAD_CAT_ID":67796,"ELEMENT_SET_NO":999,"REV_AT_EPOCH":55549,"BSTAR":0.00017477,"MEAN_MOTION_DOT":9.014e-5,"MEAN_MOTION_DDOT":0},{"OBJECT_NAME":"STARLINK-36800","OBJECT_ID":"2026-032A","EPOCH":"2026-03-05T02:52:08.325120","MEAN_MOTION":15.7521627,"ECCENTRICITY":0.000126,"INCLINATION":97.284,"RA_OF_ASC_NODE":250.3766,"ARG_OF_PERICENTER":92.0609,"MEAN_ANOMALY":268.0801,"EPHEMERIS_TYPE":0,"CLASSIFICATION_TYPE":"U","NORAD_CAT_ID":67797,"ELEMENT_SET_NO":999,"REV_AT_EPOCH":406,"BSTAR":0.00097207,"MEAN_MOTION_DOT":0.00147559,"MEAN_MOTION_DDOT":0},{"OBJECT_NAME":"STARLINK-36798","OBJECT_ID":"2026-032B","EPOCH":"2026-03-05T04:00:01.999584","MEAN_MOTION":15.75211059,"ECCENTRICITY":0.0002058,"INCLINATION":97.2844,"RA_OF_ASC_NODE":250.4665,"ARG_OF_PERICENTER":85.0362,"MEAN_ANOMALY":274.2679,"EPHEMERIS_TYPE":0,"CLASSIFICATION_TYPE":"U","NORAD_CAT_ID":67798,"ELEMENT_SET_NO":999,"REV_AT_EPOCH":399,"BSTAR":-0.00023312,"MEAN_MOTION_DOT":-0.00034795,"MEAN_MOTION_DDOT":0},{"OBJECT_NAME":"STARLINK-36804","OBJECT_ID":"2026-032C","EPOCH":"2026-03-05T02:49:36.114240","MEAN_MOTION":15.75221042,"ECCENTRICITY":0.0001342,"INCLINATION":97.284,"RA_OF_ASC_NODE":250.379,"ARG_OF_PERICENTER":80.8813,"MEAN_ANOMALY":279.2604,"EPHEMERIS_TYPE":0,"CLASSIFICATION_TYPE":"U","NORAD_CAT_ID":67799,"ELEMENT_SET_NO":999,"REV_AT_EPOCH":406,"BSTAR":0.001024,"MEAN_MOTION_DOT":0.00155626,"MEAN_MOTION_DDOT":0},{"OBJECT_NAME":"STARLINK-36354","OBJECT_ID":"2026-032D","EPOCH":"2026-03-05T04:00:01.999584","MEAN_MOTION":15.75218131,"ECCENTRICITY":0.0001656,"INCLINATION":97.2872,"RA_OF_ASC_NODE":250.4584,"ARG_OF_PERICENTER":102.7449,"MEAN_ANOMALY":236.5461,"EPHEMERIS_TYPE":0,"CLASSIFICATION_TYPE":"U","NORAD_CAT_ID":67800,"ELEMENT_SET_NO":999,"REV_AT_EPOCH":405,"BSTAR":-0.00046665,"MEAN_MOTION_DOT":-0.0006926,"MEAN_MOTION_DDOT":0}]
